{
  "type": "FeatureCollection",
  "features": [
    {
      "type": "Feature",
      "properties": {
        "norad_id": 66823,
        "name": "STARLINK-35957",
        "group": "last-30-days",
        "lat": 9.52510565653975,
        "lon": -161.0876695768682,
        "alt_km": 338.24684895225437,
        "timestamp": "2025-12-13T22:39:28.445681+00:00",
        "meta_object_name": "STARLINK-35957",
        "meta_object_id": "2025-280C",
        "meta_epoch": "2025-12-13T07:24:03.287232",
        "meta_mean_motion": 15.7841229,
        "meta_eccentricity": 0.00029253,
        "meta_inclination": 69.9931,
        "meta_ra_of_asc_node": 197.2154,
        "meta_arg_of_pericenter": 292.1559,
        "meta_mean_anomaly": 67.933,
        "meta_ephemeris_type": 0,
        "meta_classification_type": "U",
        "meta_norad_cat_id": 66823,
        "meta_element_set_no": 999,
        "meta_rev_at_epoch": 301,
        "meta_bstar": -0.0041443241,
        "meta_mean_motion_dot": -0.00665505,
        "meta_mean_motion_ddot": 0,
        "tle_line1": "1 66823U 25280C   25347.30837138 -.00665505  00000+0 -41443-2 0  9992",
        "tle_line2": "2 66823  69.9931 197.2154 0002925 292.1559  67.9330 15.78412290  3015"
      },
      "geometry": {
        "type": "Point",
        "coordinates": [
          -161.0876695768682,
          9.52510565653975
        ]
      }
    },
    {
      "type": "Feature",
      "properties": {
        "norad_id": 66824,
        "name": "STARLINK-35896",
        "group": "last-30-days",
        "lat": 12.181303762481036,
        "lon": -160.08472670301748,
        "alt_km": 338.37348087992723,
        "timestamp": "2025-12-13T22:39:28.445691+00:00",
        "meta_object_name": "STARLINK-35896",
        "meta_object_id": "2025-280D",
        "meta_epoch": "2025-12-13T04:20:59.538624",
        "meta_mean_motion": 15.78881277,
        "meta_eccentricity": 0.00039504,
        "meta_inclination": 69.9932,
        "meta_ra_of_asc_node": 197.5749,
        "meta_arg_of_pericenter": 269.5598,
        "meta_mean_anomaly": 90.515,
        "meta_ephemeris_type": 0,
        "meta_classification_type": "U",
        "meta_norad_cat_id": 66824,
        "meta_element_set_no": 999,
        "meta_rev_at_epoch": 299,
        "meta_bstar": -0.0044799056,
        "meta_mean_motion_dot": -0.00729751,
        "meta_mean_motion_ddot": 0,
        "tle_line1": "1 66824U 25280D   25347.18124466 -.00729751  00000+0 -44799-2 0  9993",
        "tle_line2": "2 66824  69.9932 197.5749 0003950 269.5598  90.5150 15.78881277  2993"
      },
      "geometry": {
        "type": "Point",
        "coordinates": [
          -160.08472670301748,
          12.181303762481036
        ]
      }
    },
    {
      "type": "Feature",
      "properties": {
        "norad_id": 66825,
        "name": "STARLINK-35476",
        "group": "last-30-days",
        "lat": 13.391761336032253,
        "lon": -159.62144133940873,
        "alt_km": 337.8232775820834,
        "timestamp": "2025-12-13T22:39:28.445703+00:00",
        "meta_object_name": "STARLINK-35476",
        "meta_object_id": "2025-280E",
        "meta_epoch": "2025-12-13T07:23:00.811392",
        "meta_mean_motion": 15.78408509,
        "meta_eccentricity": 0.00027513,
        "meta_inclination": 69.993,
        "meta_ra_of_asc_node": 197.2122,
        "meta_arg_of_pericenter": 290.1485,
        "meta_mean_anomaly": 69.9419,
        "meta_ephemeris_type": 0,
        "meta_classification_type": "U",
        "meta_norad_cat_id": 66825,
        "meta_element_set_no": 999,
        "meta_rev_at_epoch": 301,
        "meta_bstar": -0.0040338554,
        "meta_mean_motion_dot": -0.00648851,
        "meta_mean_motion_ddot": 0,
        "tle_line1": "1 66825U 25280E   25347.30764828 -.00648851  00000+0 -40339-2 0  9997",
        "tle_line2": "2 66825  69.9930 197.2122 0002751 290.1485  69.9419 15.78408509  3012"
      },
      "geometry": {
        "type": "Point",
        "coordinates": [
          -159.62144133940873,
          13.391761336032253
        ]
      }
    },
    {
      "type": "Feature",
      "properties": {
        "norad_id": 66826,
        "name": "STARLINK-35898",
        "group": "last-30-days",
        "lat": 15.431505010418034,
        "lon": -158.82792397396216,
        "alt_km": 337.3580353883053,
        "timestamp": "2025-12-13T22:39:28.445713+00:00",
        "meta_object_name": "STARLINK-35898",
        "meta_object_id": "2025-280F",
        "meta_epoch": "2025-12-13T07:22:32.018592",
        "meta_mean_motion": 15.78479377,
        "meta_eccentricity": 0.0003654,
        "meta_inclination": 69.9935,
        "meta_ra_of_asc_node": 197.2112,
        "meta_arg_of_pericenter": 283.0207,
        "meta_mean_anomaly": 77.0585,
        "meta_ephemeris_type": 0,
        "meta_classification_type": "U",
        "meta_norad_cat_id": 66826,
        "meta_element_set_no": 999,
        "meta_rev_at_epoch": 301,
        "meta_bstar": -0.0035158143,
        "meta_mean_motion_dot": -0.00572561,
        "meta_mean_motion_ddot": 0,
        "tle_line1": "1 66826U 25280F   25347.30731503 -.00572561  00000+0 -35158-2 0  9999",
        "tle_line2": "2 66826  69.9935 197.2112 0003654 283.0207  77.0585 15.78479377  3018"
      },
      "geometry": {
        "type": "Point",
        "coordinates": [
          -158.82792397396216,
          15.431505010418034
        ]
      }
    },
    {
      "type": "Feature",
      "properties": {
        "norad_id": 66827,
        "name": "STARLINK-35959",
        "group": "last-30-days",
        "lat": 16.859302950427786,
        "lon": -158.26265949108532,
        "alt_km": 338.66528263276723,
        "timestamp": "2025-12-13T22:39:28.445723+00:00",
        "meta_object_name": "STARLINK-35959",
        "meta_object_id": "2025-280G",
        "meta_epoch": "2025-12-13T07:22:01.021728",
        "meta_mean_motion": 15.7842832,
        "meta_eccentricity": 0.0005009,
        "meta_inclination": 69.9895,
        "meta_ra_of_asc_node": 197.2088,
        "meta_arg_of_pericenter": 278.1902,
        "meta_mean_anomaly": 81.873,
        "meta_ephemeris_type": 0,
        "meta_classification_type": "U",
        "meta_norad_cat_id": 66827,
        "meta_element_set_no": 999,
        "meta_rev_at_epoch": 301,
        "meta_bstar": -0.0051105634,
        "meta_mean_motion_dot": -0.00808699,
        "meta_mean_motion_ddot": 0,
        "tle_line1": "1 66827U 25280G   25347.30695627 -.00808699  00000+0 -51106-2 0  9991",
        "tle_line2": "2 66827  69.9895 197.2088 0005009 278.1902  81.8730 15.78428320  3016"
      },
      "geometry": {
        "type": "Point",
        "coordinates": [
          -158.26265949108532,
          16.859302950427786
        ]
      }
    },
    {
      "type": "Feature",
      "properties": {
        "norad_id": 66828,
        "name": "STARLINK-35982",
        "group": "last-30-days",
        "lat": 21.515258329146963,
        "lon": -156.3494770954488,
        "alt_km": 335.31858740536245,
        "timestamp": "2025-12-13T22:39:28.445733+00:00",
        "meta_object_name": "STARLINK-35982",
        "meta_object_id": "2025-280H",
        "meta_epoch": "2025-12-13T07:20:58.292736",
        "meta_mean_motion": 15.78518168,
        "meta_eccentricity": 0.00035033,
        "meta_inclination": 69.9934,
        "meta_ra_of_asc_node": 197.2071,
        "meta_arg_of_pericenter": 297.1106,
        "meta_mean_anomaly": 62.9737,
        "meta_ephemeris_type": 0,
        "meta_classification_type": "U",
        "meta_norad_cat_id": 66828,
        "meta_element_set_no": 999,
        "meta_rev_at_epoch": 301,
        "meta_bstar": -0.0024458884,
        "meta_mean_motion_dot": -0.00406662,
        "meta_mean_motion_ddot": 0,
        "tle_line1": "1 66828U 25280H   25347.30623024 -.00406662  00000+0 -24459-2 0  9999",
        "tle_line2": "2 66828  69.9934 197.2071 0003503 297.1106  62.9737 15.78518168  3014"
      },
      "geometry": {
        "type": "Point",
        "coordinates": [
          -156.3494770954488,
          21.515258329146963
        ]
      }
    },
    {
      "type": "Feature",
      "properties": {
        "norad_id": 66829,
        "name": "STARLINK-36084",
        "group": "last-30-days",
        "lat": 18.88186814413327,
        "lon": -157.44614643712492,
        "alt_km": 337.30730351463353,
        "timestamp": "2025-12-13T22:39:28.445745+00:00",
        "meta_object_name": "STARLINK-36084",
        "meta_object_id": "2025-280J",
        "meta_epoch": "2025-12-13T07:21:30.268512",
        "meta_mean_motion": 15.78394172,
        "meta_eccentricity": 0.00028338,
        "meta_inclination": 69.9926,
        "meta_ra_of_asc_node": 197.2079,
        "meta_arg_of_pericenter": 289.8321,
        "meta_mean_anomaly": 70.2574,
        "meta_ephemeris_type": 0,
        "meta_classification_type": "U",
        "meta_norad_cat_id": 66829,
        "meta_element_set_no": 999,
        "meta_rev_at_epoch": 301,
        "meta_bstar": -0.0042198039,
        "meta_mean_motion_dot": -0.00676209,
        "meta_mean_motion_ddot": 0,
        "tle_line1": "1 66829U 25280J   25347.30660033 -.00676209  00000+0 -42198-2 0  9997",
        "tle_line2": "2 66829  69.9926 197.2079 0002833 289.8321  70.2574 15.78394172  3014"
      },
      "geometry": {
        "type": "Point",
        "coordinates": [
          -157.44614643712492,
          18.88186814413327
        ]
      }
    }
  ]
}